{"type": "FeatureCollection", "features": [ {"type": "Feature", "properties": {"norad_id": 66613, "name": "STARLINK-36037", "group": "last-30-days", "lat": 36.143268175926984, "lon": -6.130861848525461, "alt_km": 365.3028667356866, "timestamp": "2025-12-07T03:52:31.204776+00:00", "meta": {"OBJECT_NAME": "STARLINK-36037", "OBJECT_ID": "2025-270AB", "EPOCH": "2025-12-06T14:00:01.999872", "MEAN_MOTION": 15.68501963, "ECCENTRICITY": 0.00015713, "INCLINATION": 42.999, "RA_OF_ASC_NODE": 228.9489, "ARG_OF_PERICENTER": 262.7487, "MEAN_ANOMALY": 191.4598, "EPHEMERIS_TYPE": 0, "CLASSIFICATION_TYPE": "U", "NORAD_CAT_ID": 66613, "ELEMENT_SET_NO": 999, "REV_AT_EPOCH": 341, "BSTAR": -0.018422181, "MEAN_MOTION_DOT": -0.01902304, "MEAN_MOTION_DDOT": 0}, "tle": {"line1": "1 66613U 25270AB  25340.58335648 -.01902304  00000+0 -18422-1 0  9992", "line2": "2 66613  42.9990 228.9489 0001571 262.7487 191.4598 15.68501963  3418"}}, "geometry": {"type": "Point", "coordinates": [-6.130861848525461, 36.143268175926984]}}, {"type": "Feature", "properties": {"norad_id": 66614, "name": "STARLINK-36040", "group": "last-30-days", "lat": 34.443223887462366, "lon": -1.9218638794977443, "alt_km": 365.6019533689405, "timestamp": "2025-12-07T03:52:31.204786+00:00", "meta": {"OBJECT_NAME": "STARLINK-36040", "OBJECT_ID": "2025-270AC", "EPOCH": "2025-12-06T14:00:01.999872", "MEAN_MOTION": 15.68504568, "ECCENTRICITY": 0.00015975, "INCLINATION": 42.999, "RA_OF_ASC_NODE": 228.9391, "ARG_OF_PERICENTER": 266.7471, "MEAN_ANOMALY": 191.2921, "EPHEMERIS_TYPE": 0, "CLASSIFICATION_TYPE": "U", "NORAD_CAT_ID": 66614, "ELEMENT_SET_NO": 999, "REV_AT_EPOCH": 325, "BSTAR": -0.01843017, "MEAN_MOTION_DOT": -0.01903238, "MEAN_MOTION_DDOT": 0}, "tle": {"line1": "1 66614U 25270AC  25340.58335648 -.01903238  00000+0 -18430-1 0  9999", "line2": "2 66614  42.9990 228.9391 0001597 266.7471 191.2921 15.68504568  3250"}}, "geometry": {"type": "Point", "coordinates": [-1.9218638794977443, 34.443223887462366]}}, {"type": "Feature", "properties": {"norad_id": 66615, "name": "STARLINK-35988", "group": "last-30-days", "lat": 35.31287298617766, "lon": -4.007153673030323, "alt_km": 365.4559736512374, "timestamp": "2025-12-07T03:52:31.204798+00:00", "meta": {"OBJECT_NAME": "STARLINK-35988", "OBJECT_ID": "2025-270AD", "EPOCH": "2025-12-06T14:00:01.999872", "MEAN_MOTION": 15.68504373, "ECCENTRICITY": 0.00016644, "INCLINATION": 42.999, "RA_OF_ASC_NODE": 228.9443, "ARG_OF_PERICENTER": 262.4083, "MEAN_ANOMALY": 193.7136, "EPHEMERIS_TYPE": 0, "CLASSIFICATION_TYPE": "U", "NORAD_CAT_ID": 66615, "ELEMENT_SET_NO": 999, "REV_AT_EPOCH": 325, "BSTAR": -0.018439071, "MEAN_MOTION_DOT": -0.01904089, "MEAN_MOTION_DDOT": 0}, "tle": {"line1": "1 66615U 25270AD  25340.58335648 -.01904089  00000+0 -18439-1 0  9994", "line2": "2 66615  42.9990 228.9443 0001664 262.4083 193.7136 15.68504373  3255"}}, "geometry": {"type": "Point", "coordinates": [-4.007153673030323, 35.31287298617766]}}, {"type": "Feature", "properties": {"norad_id": 66616, "name": "STARLINK-35391", "group": "last-30-days", "lat": 33.54204205272361, "lon": 0.11346620530749771, "alt_km": 365.6298822078006, "timestamp": "2025-12-07T03:52:31.204809+00:00", "meta": {"OBJECT_NAME": "STARLINK-35391", "OBJECT_ID": "2025-270AE", "EPOCH": "2025-12-06T14:00:01.999872", "MEAN_MOTION": 15.68505211, "ECCENTRICITY": 0.00015733, "INCLINATION": 42.9991, "RA_OF_ASC_NODE": 228.9349, "ARG_OF_PERICENTER": 262.4645, "MEAN_ANOMALY": 197.4916, "EPHEMERIS_TYPE": 0, "CLASSIFICATION_TYPE": "U", "NORAD_CAT_ID": 66616, "ELEMENT_SET_NO": 999, "REV_AT_EPOCH": 352, "BSTAR": -0.018446992, "MEAN_MOTION_DOT": -0.01904805, "MEAN_MOTION_DDOT": 0}, "tle": {"line1": "1 66616U 25270AE  25340.58335648 -.01904805  00000+0 -18447-1 0  9990", "line2": "2 66616  42.9991 228.9349 0001573 262.4645 197.4916 15.68505211  3524"}}, "geometry": {"type": "Point", "coordinates": [0.11346620530749771, 33.54204205272361]}}, {"type": "Feature", "properties": {"norad_id": 66617, "name": "STARLINK-35940", "group": "last-30-days", "lat": 17.8279244611835, "lon": -131.63158919075997, "alt_km": 344.69415423387727, "timestamp": "2025-12-07T03:52:31.204819+00:00", "meta": {"OBJECT_NAME": "STARLINK-35940", "OBJECT_ID": "2025-271A", "EPOCH": "2025-12-06T14:00:01.999872", "MEAN_MOTION": 15.74115378, "ECCENTRICITY": 0.00015886, "INCLINATION": 53.158, "RA_OF_ASC_NODE": 217.2848, "ARG_OF_PERICENTER": 88.021, "MEAN_ANOMALY": 256.4714, "EPHEMERIS_TYPE": 0, "CLASSIFICATION_TYPE": "U", "NORAD_CAT_ID": 66617, "ELEMENT_SET_NO": 999, "REV_AT_EPOCH": 325, "BSTAR": 0.00076468165, "MEAN_MOTION_DOT": 0.00112508, "MEAN_MOTION_DDOT": 0}, "tle": {"line1": "1 66617U 25271A   25340.58335648  .00112508  00000+0  76468-3 0  9999", "line2": "2 66617  53.1580 217.2848 0001588  88.0210 256.4714 15.74115378  3254"}}, "geometry": {"type": "Point", "coordinates": [-131.63158919075997, 17.8279244611835]}}, {"type": "Feature", "properties": {"norad_id": 66618, "name": "STARLINK-35970", "group": "last-30-days", "lat": 50.8881711714602, "lon": -78.4442468118151, "alt_km": 339.4702882863221, "timestamp": "2025-12-07T03:52:31.204832+00:00", "meta": {"OBJECT_NAME": "STARLINK-35970", "OBJECT_ID": "2025-271B", "EPOCH": "2025-12-06T14:00:01.999872", "MEAN_MOTION": 15.74233486, "ECCENTRICITY": 9.506e-05, "INCLINATION": 53.158, "RA_OF_ASC_NODE": 217.1724, "ARG_OF_PERICENTER": 89.5731, "MEAN_ANOMALY": 308.1568, "EPHEMERIS_TYPE": 0, "CLASSIFICATION_TYPE": "U", "NORAD_CAT_ID": 66618, "ELEMENT_SET_NO": 999, "REV_AT_EPOCH": 325, "BSTAR": -0.00026765273, "MEAN_MOTION_DOT": -0.00039718, "MEAN_MOTION_DDOT": 0}, "tle": {"line1": "1 66618U 25271B   25340.58335648 -.00039718  00000+0 -26765-3 0  9998", "line2": "2 66618  53.1580 217.1724 0000950  89.5731 308.1568 15.74233486  3256"}}, "geometry": {"type": "Point", "coordinates": [-78.4442468118151, 50.8881711714602]}}, {"type": "Feature", "properties": {"norad_id": 66619, "name": "STARLINK-35951", "group": "last-30-days", "lat": 23.717244019061877, "lon": -126.36921031348459, "alt_km": 344.126554437903, "timestamp": "2025-12-07T03:52:31.204843+00:00", "meta": {"OBJECT_NAME": "STARLINK-35951", "OBJECT_ID": "2025-271C", "EPOCH": "2025-12-06T14:00:01.999872", "MEAN_MOTION": 15.74145198, "ECCENTRICITY": 5.42e-05, "INCLINATION": 53.1578, "RA_OF_ASC_NODE": 217.268, "ARG_OF_PERICENTER": 105.5706, "MEAN_ANOMALY": 246.5724, "EPHEMERIS_TYPE": 0, "CLASSIFICATION_TYPE": "U", "NORAD_CAT_ID": 66619, "ELEMENT_SET_NO": 999, "REV_AT_EPOCH": 325, "BSTAR": 0.00049155556, "MEAN_MOTION_DOT": 0.00071839, "MEAN_MOTION_DDOT": 0}, "tle": {"line1": "1 66619U 25271C   25340.58335648  .00071839  00000+0  49156-3 0  9996", "line2": "2 66619  53.1578 217.2680 0000542 105.5706 246.5724 15.74145198  3255"}}, "geometry": {"type": "Point", "coordinates": [-126.36921031348459, 23.717244019061877]}}, {"type": "Feature", "properties": {"norad_id": 66620, "name": "STARLINK-35936", "group": "last-30-days", "lat": 19.317594085402316, "lon": -130.35129718746944, "alt_km": 344.62201061864926, "timestamp": "2025-12-07T03:52:31.204853+00:00", "meta": {"OBJECT_NAME": "STARLINK-35936", "OBJECT_ID": "2025-271D", "EPOCH": "2025-12-06T14:00:01.999872", "MEAN_MOTION": 15.74132334, "ECCENTRICITY": 0.00012314, "INCLINATION": 53.1582, "RA_OF_ASC_NODE": 217.2806, "ARG_OF_PERICENTER": 93.8758, "MEAN_ANOMALY": 252.5244, "EPHEMERIS_TYPE": 0, "CLASSIFICATION_TYPE": "U", "NORAD_CAT_ID": 66620, "ELEMENT_SET_NO": 999, "REV_AT_EPOCH": 325, "BSTAR": 0.00062759381, "MEAN_MOTION_DOT": 0.00092066, "MEAN_MOTION_DDOT": 0}, "tle": {"line1": "1 66620U 25271D   25340.58335648  .00092066  00000+0  62759-3 0  9997", "line2": "2 66620  53.1582 217.2806 0001231  93.8758 252.5244 15.74132334  3256"}}, "geometry": {"type": "Point", "coordinates": [-130.35129718746944, 19.317594085402316]}}, {"type": "Feature", "properties": {"norad_id": 66621, "name": "STARLINK-35847", "group": "last-30-days", "lat": 51.85788792444605, "lon": -72.99844102548879, "alt_km": 339.2797960083335, "timestamp": "2025-12-07T03:52:31.204863+00:00", "meta": {"OBJECT_NAME": "STARLINK-35847", "OBJECT_ID": "2025-271E", "EPOCH": "2025-12-06T14:00:01.999872", "MEAN_MOTION": 15.74156603, "ECCENTRICITY": 0.00010648, "INCLINATION": 53.1579, "RA_OF_ASC_NODE": 217.1646, "ARG_OF_PERICENTER": 97.3895, "MEAN_ANOMALY": 303.9533, "EPHEMERIS_TYPE": 0, "CLASSIFICATION_TYPE": "U", "NORAD_CAT_ID": 66621, "ELEMENT_SET_NO": 999, "REV_AT_EPOCH": 325, "BSTAR": 0.00019447, "MEAN_MOTION_DOT": 0.00027906, "MEAN_MOTION_DDOT": 0}, "tle": {"line1": "1 66621U 25271E   25340.58335648  .00027906  00000+0  19447-3 0  9995", "line2": "2 66621  53.1579 217.1646 0001064  97.3895 303.9533 15.74156603  3256"}}, "geometry": {"type": "Point", "coordinates": [-72.99844102548879, 51.85788792444605]}}, {"type": "Feature", "properties": {"norad_id": 66622, "name": "STARLINK-35950", "group": "last-30-days", "lat": 25.14465908116638, "lon": -124.9996824802534, "alt_km": 343.55626155611026, "timestamp": "2025-12-07T03:52:31.204873+00:00", "meta": {"OBJECT_NAME": "STARLINK-35950", "OBJECT_ID": "2025-271F", "EPOCH": "2025-12-06T14:00:01.999872", "MEAN_MOTION": 15.74152255, "ECCENTRICITY": 0.00014646, "INCLINATION": 53.158, "RA_OF_ASC_NODE": 217.2642, "ARG_OF_PERICENTER": 90.3222, "MEAN_ANOMALY": 263.7429, "EPHEMERIS_TYPE": 0, "CLASSIFICATION_TYPE": "U", "NORAD_CAT_ID": 66622, "ELEMENT_SET_NO": 999, "REV_AT_EPOCH": 325, "BSTAR": 0.00030667565, "MEAN_MOTION_DOT": 0.0004445, "MEAN_MOTION_DDOT": 0}, "tle": {"line1": "1 66622U 25271F   25340.58335648  .00044450  00000+0  30668-3 0  9997", "line2": "2 66622  53.1580 217.2642 0001464  90.3222 263.7429 15.74152255  3253"}}, "geometry": {"type": "Point", "coordinates": [-124.9996824802534, 25.14465908116638]}}]}